{
  "type": "FeatureCollection",
  "features": [
    {
      "type": "Feature",
      "properties": {
        "norad_id": 43823,
        "name": "GEO-KOMPSAT-2A",
        "group": "weather",
        "lat": 0.011468280243747705,
        "lon": -79.3155889833461,
        "alt_km": 35788.02659453422,
        "timestamp": "2025-12-26T03:50:11.730204+00:00",
        "meta_object_name": "GEO-KOMPSAT-2A",
        "meta_object_id": "2018-100A",
        "meta_epoch": "2025-12-25T12:13:38.614080",
        "meta_mean_motion": 1.00268534,
        "meta_eccentricity": 2.51e-05,
        "meta_inclination": 0.0434,
        "meta_ra_of_asc_node": 172.7377,
        "meta_arg_of_pericenter": 259.9479,
        "meta_mean_anomaly": 333.2359,
        "meta_ephemeris_type": 0,
        "meta_classification_type": "U",
        "meta_norad_cat_id": 43823,
        "meta_element_set_no": 999,
        "meta_rev_at_epoch": 2588,
        "meta_bstar": 0,
        "meta_mean_motion_dot": -3.22e-06,
        "meta_mean_motion_ddot": 0,
        "tle_line1": "1 43823U 18100A   25359.50947470 -.00000322  00000+0  00000+0 0  9996",
        "tle_line2": "2 43823   0.0434 172.7377 0000251 259.9479 333.2359  1.00268534 25880"
      },
      "geometry": {
        "type": "Point",
        "coordinates": [
          -79.3155889833461,
          0.011468280243747705
        ]
      }
    },
    {
      "type": "Feature",
      "properties": {
        "norad_id": 44387,
        "name": "METEOR-M2 2",
        "group": "weather",
        "lat": 26.932118313914124,
        "lon": -24.51203833435575,
        "alt_km": 809.8930667467012,
        "timestamp": "2025-12-26T03:50:11.730216+00:00",
        "meta_object_name": "METEOR-M2 2",
        "meta_object_id": "2019-038A",
        "meta_epoch": "2025-12-25T20:57:53.633088",
        "meta_mean_motion": 14.24296259,
        "meta_eccentricity": 0.0001822,
        "meta_inclination": 98.8989,
        "meta_ra_of_asc_node": 339.7635,
        "meta_arg_of_pericenter": 124.1367,
        "meta_mean_anomaly": 235.9984,
        "meta_ephemeris_type": 0,
        "meta_classification_type": "U",
        "meta_norad_cat_id": 44387,
        "meta_element_set_no": 999,
        "meta_rev_at_epoch": 33662,
        "meta_bstar": 3.5361e-05,
        "meta_mean_motion_dot": 3.6e-07,
        "meta_mean_motion_ddot": 0,
        "tle_line1": "1 44387U 19038A   25359.87353742  .00000036  00000+0  35361-4 0  9990",
        "tle_line2": "2 44387  98.8989 339.7635 0001822 124.1367 235.9984 14.24296259336626"
      },
      "geometry": {
        "type": "Point",
        "coordinates": [
          -24.51203833435575,
          26.932118313914124
        ]
      }
    },
    {
      "type": "Feature",
      "properties": {
        "norad_id": 47719,
        "name": "ARKTIKA-M 1",
        "group": "weather",
        "lat": 57.26187124818596,
        "lon": 134.03705972127545,
        "alt_km": 33863.85769701246,
        "timestamp": "2025-12-26T03:50:11.730229+00:00",
        "meta_object_name": "ARKTIKA-M 1",
        "meta_object_id": "2021-016A",
        "meta_epoch": "2025-12-25T00:52:45.922368",
        "meta_mean_motion": 2.00630507,
        "meta_eccentricity": 0.7210339,
        "meta_inclination": 63.177,
        "meta_ra_of_asc_node": 82.3163,
        "meta_arg_of_pericenter": 269.1694,
        "meta_mean_anomaly": 15.5374,
        "meta_ephemeris_type": 0,
        "meta_classification_type": "U",
        "meta_norad_cat_id": 47719,
        "meta_element_set_no": 999,
        "meta_rev_at_epoch": 3529,
        "meta_bstar": 0,
        "meta_mean_motion_dot": -4.3e-07,
        "meta_mean_motion_ddot": 0,
        "tle_line1": "1 47719U 21016A   25359.03664262 -.00000043  00000+0  00000+0 0  9997",
        "tle_line2": "2 47719  63.1770  82.3163 7210339 269.1694  15.5374  2.00630507 35296"
      },
      "geometry": {
        "type": "Point",
        "coordinates": [
          134.03705972127545,
          57.26187124818596
        ]
      }
    },
    {
      "type": "Feature",
      "properties": {
        "norad_id": 49008,
        "name": "FENGYUN 3E",
        "group": "weather",
        "lat": 45.66925683517388,
        "lon": -170.40997528607903,
        "alt_km": 821.3338119925975,
        "timestamp": "2025-12-26T03:50:11.730241+00:00",
        "meta_object_name": "FENGYUN 3E",
        "meta_object_id": "2021-062A",
        "meta_epoch": "2025-12-25T20:26:40.953696",
        "meta_mean_motion": 14.19881142,
        "meta_eccentricity": 9.89e-05,
        "meta_inclination": 98.7479,
        "meta_ra_of_asc_node": 0.2172,
        "meta_arg_of_pericenter": 188.2106,
        "meta_mean_anomaly": 171.9054,
        "meta_ephemeris_type": 0,
        "meta_classification_type": "U",
        "meta_norad_cat_id": 49008,
        "meta_element_set_no": 999,
        "meta_rev_at_epoch": 23198,
        "meta_bstar": 3.0757e-06,
        "meta_mean_motion_dot": -3.7e-07,
        "meta_mean_motion_ddot": 0,
        "tle_line1": "1 49008U 21062A   25359.85186289 -.00000037  00000+0  30757-5 0  9990",
        "tle_line2": "2 49008  98.7479   0.2172 0000989 188.2106 171.9054 14.19881142231980"
      },
      "geometry": {
        "type": "Point",
        "coordinates": [
          -170.40997528607903,
          45.66925683517388
        ]
      }
    },
    {
      "type": "Feature",
      "properties": {
        "norad_id": 51850,
        "name": "GOES 18",
        "group": "weather",
        "lat": 7.218361077908041e-05,
        "lon": 15.451743337623029,
        "alt_km": 35785.239024824696,
        "timestamp": "2025-12-26T03:50:11.730261+00:00",
        "meta_object_name": "GOES 18",
        "meta_object_id": "2022-021A",
        "meta_epoch": "2025-12-25T12:22:38.764416",
        "meta_mean_motion": 1.00271349,
        "meta_eccentricity": 4.36e-05,
        "meta_inclination": 0.0208,
        "meta_ra_of_asc_node": 187.5014,
        "meta_arg_of_pericenter": 127.4929,
        "meta_mean_anomaly": 187.9384,
        "meta_ephemeris_type": 0,
        "meta_classification_type": "U",
        "meta_norad_cat_id": 51850,
        "meta_element_set_no": 999,
        "meta_rev_at_epoch": 485,
        "meta_bstar": 0,
        "meta_mean_motion_dot": 1.18e-06,
        "meta_mean_motion_ddot": 0,
        "tle_line1": "1 51850U 22021A   25359.51572644  .00000118  00000+0  00000+0 0  9992",
        "tle_line2": "2 51850   0.0208 187.5014 0000436 127.4929 187.9384  1.00271349  4858"
      },
      "geometry": {
        "type": "Point",
        "coordinates": [
          15.451743337623029,
          7.218361077908041e-05
        ]
      }
    },
    {
      "type": "Feature",
      "properties": {
        "norad_id": 54234,
        "name": "NOAA 21 (JPSS-2)",
        "group": "weather",
        "lat": 56.05171166186678,
        "lon": 129.52338908932532,
        "alt_km": 822.0113633295259,
        "timestamp": "2025-12-26T03:50:11.730273+00:00",
        "meta_object_name": "NOAA 21 (JPSS-2)",
        "meta_object_id": "2022-150A",
        "meta_epoch": "2025-12-25T18:48:05.685696",
        "meta_mean_motion": 14.19527642,
        "meta_eccentricity": 0.0001616,
        "meta_inclination": 98.7478,
        "meta_ra_of_asc_node": 295.9299,
        "meta_arg_of_pericenter": 10.9996,
        "meta_mean_anomaly": 349.1215,
        "meta_ephemeris_type": 0,
        "meta_classification_type": "U",
        "meta_norad_cat_id": 54234,
        "meta_element_set_no": 999,
        "meta_rev_at_epoch": 16194,
        "meta_bstar": 6.8925e-05,
        "meta_mean_motion_dot": 1.01e-06,
        "meta_mean_motion_ddot": 0,
        "tle_line1": "1 54234U 22150A   25359.78339914  .00000101  00000+0  68925-4 0  9991",
        "tle_line2": "2 54234  98.7478 295.9299 0001616  10.9996 349.1215 14.19527642161943"
      },
      "geometry": {
        "type": "Point",
        "coordinates": [
          129.52338908932532,
          56.05171166186678
        ]
      }
    },
    {
      "type": "Feature",
      "properties": {
        "norad_id": 54743,
        "name": "METEOSAT-12 (MTG-I1)",
        "group": "weather",
        "lat": 0.5766415283253528,
        "lon": 152.11178837306664,
        "alt_km": 35789.24009037034,
        "timestamp": "2025-12-26T03:50:11.730285+00:00",
        "meta_object_name": "METEOSAT-12 (MTG-I1)",
        "meta_object_id": "2022-170C",
        "meta_epoch": "2025-12-25T18:12:05.168160",
        "meta_mean_motion": 1.00270902,
        "meta_eccentricity": 0.0001669,
        "meta_inclination": 0.7004,
        "meta_ra_of_asc_node": 25.7581,
        "meta_arg_of_pericenter": 241.4183,
        "meta_mean_anomaly": 100.0355,
        "meta_ephemeris_type": 0,
        "meta_classification_type": "U",
        "meta_norad_cat_id": 54743,
        "meta_element_set_no": 999,
        "meta_rev_at_epoch": 1123,
        "meta_bstar": 0,
        "meta_mean_motion_dot": 1.4e-07,
        "meta_mean_motion_ddot": 0,
        "tle_line1": "1 54743U 22170C   25359.75839315  .00000014  00000+0  00000+0 0  9993",
        "tle_line2": "2 54743   0.7004  25.7581 0001669 241.4183 100.0355  1.00270902 11231"
      },
      "geometry": {
        "type": "Point",
        "coordinates": [
          152.11178837306664,
          0.5766415283253528
        ]
      }
    }
  ]
}